O3B MPOWER F1           
1 54755U 22174A   26194.25815647 -.00000020  00000+0  00000+0 0  9993
2 54755   0.0494 339.4817 0006620 143.2763 109.4827  5.00114726 66661
O3B MPOWER F2           
1 54756U 22174B   26193.89605960 -.00000019  00000+0  00000+0 0  9996
2 54756   0.0453 339.8145 0005795 126.3945 253.8528  5.00114907 66732
O3B MPOWER F4           
1 56367U 23059A   26194.16018140 -.00000019  00000+0  00000+0 0  9998
2 56367   0.0630 350.2536 0007730 124.9515 244.8728  5.00115399 59907
O3B MPOWER F3           
1 56368U 23059B   26193.79353769 -.00000018  00000+0  00000+0 0  9995
2 56368   0.0637 349.6430 0006676 118.5075 251.9202  5.00116388 56012
O3B MPOWER F5           
1 58346U 23175A   26193.89453117 -.00000019  00000+0  00000+0 0  9992
2 58346   0.0520   9.3314 0005474 120.2229 230.4919  5.00115907 50723
O3B MPOWER F6           
1 58347U 23175B   26193.99500798 -.00000019  00000+0  00000+0 0  9992
2 58347   0.0539   1.0215 0004432 109.0389 249.9851  5.00115754 49647
O3B MPOWER F7           
1 62362U 24244A   26194.06140731 -.00000019  00000+0  00000+0 0  9998
2 62362   0.0661 343.2412 0005933 124.3649 252.4566  5.00115292 27826
O3B MPOWER F8           
1 62363U 24244B   26194.02835628 -.00000019  00000+0  00000+0 0  9991
2 62363   0.0143   1.6954 0005773  98.6065 259.7609  5.00115001 22163
O3B MPOWER F9           
1 64866U 25153A   26194.16163092 -.00000019  00000+0  00000+0 0  9995
2 64866   0.0611   5.8467 0006707 124.3478 229.8620  5.00115640 20866
O3B MPOWER F10          
1 64867U 25153B   26194.12768042 -.00000019  00000+0  00000+0 0  9998
2 64867   0.0582   2.3541 0002399 245.3415 112.2766  5.00114852 23321
