{"fetched_at":"2026-07-13T18:17:09.322Z","source":"https://celestrak.org/NORAD/elements/gp.php?NAME=O3B&FORMAT=JSON","constellation":"o3b-mpower","records":[{"OBJECT_NAME":"O3B MPOWER F1","OBJECT_ID":"2022-174A","EPOCH":"2026-07-13T06:11:44.719008","CLASSIFICATION_TYPE":"U","MEAN_MOTION":5.00114726,"ECCENTRICITY":0.00066206,"INCLINATION":0.0494,"RA_OF_ASC_NODE":339.4817,"ARG_OF_PERICENTER":143.2763,"MEAN_ANOMALY":109.4827,"EPHEMERIS_TYPE":0,"NORAD_CAT_ID":54755,"ELEMENT_SET_NO":999,"REV_AT_EPOCH":6666,"BSTAR":0,"MEAN_MOTION_DOT":-2e-7,"MEAN_MOTION_DDOT":0},{"OBJECT_NAME":"O3B MPOWER F2","OBJECT_ID":"2022-174B","EPOCH":"2026-07-12T21:30:19.549440","CLASSIFICATION_TYPE":"U","MEAN_MOTION":5.00114907,"ECCENTRICITY":0.00057955,"INCLINATION":0.0453,"RA_OF_ASC_NODE":339.8145,"ARG_OF_PERICENTER":126.3945,"MEAN_ANOMALY":253.8528,"EPHEMERIS_TYPE":0,"NORAD_CAT_ID":54756,"ELEMENT_SET_NO":999,"REV_AT_EPOCH":6673,"BSTAR":0,"MEAN_MOTION_DOT":-1.9e-7,"MEAN_MOTION_DDOT":0},{"OBJECT_NAME":"O3B MPOWER F4","OBJECT_ID":"2023-059A","EPOCH":"2026-07-13T03:50:39.672960","CLASSIFICATION_TYPE":"U","MEAN_MOTION":5.00115399,"ECCENTRICITY":0.00077302,"INCLINATION":0.063,"RA_OF_ASC_NODE":350.2536,"ARG_OF_PERICENTER":124.9515,"MEAN_ANOMALY":244.8728,"EPHEMERIS_TYPE":0,"NORAD_CAT_ID":56367,"ELEMENT_SET_NO":999,"REV_AT_EPOCH":5990,"BSTAR":0,"MEAN_MOTION_DOT":-1.9e-7,"MEAN_MOTION_DDOT":0},{"OBJECT_NAME":"O3B MPOWER F3","OBJECT_ID":"2023-059B","EPOCH":"2026-07-12T19:02:41.656416","CLASSIFICATION_TYPE":"U","MEAN_MOTION":5.00116388,"ECCENTRICITY":0.00066769,"INCLINATION":0.0637,"RA_OF_ASC_NODE":349.643,"ARG_OF_PERICENTER":118.5075,"MEAN_ANOMALY":251.9202,"EPHEMERIS_TYPE":0,"NORAD_CAT_ID":56368,"ELEMENT_SET_NO":999,"REV_AT_EPOCH":5601,"BSTAR":0,"MEAN_MOTION_DOT":-1.8e-7,"MEAN_MOTION_DDOT":0},{"OBJECT_NAME":"O3B MPOWER F5","OBJECT_ID":"2023-175A","EPOCH":"2026-07-12T21:28:07.493088","CLASSIFICATION_TYPE":"U","MEAN_MOTION":5.00115907,"ECCENTRICITY":0.00054743,"INCLINATION":0.052,"RA_OF_ASC_NODE":9.3314,"ARG_OF_PERICENTER":120.2229,"MEAN_ANOMALY":230.4919,"EPHEMERIS_TYPE":0,"NORAD_CAT_ID":58346,"ELEMENT_SET_NO":999,"REV_AT_EPOCH":5072,"BSTAR":0,"MEAN_MOTION_DOT":-1.9e-7,"MEAN_MOTION_DDOT":0},{"OBJECT_NAME":"O3B MPOWER F6","OBJECT_ID":"2023-175B","EPOCH":"2026-07-12T23:52:48.689472","CLASSIFICATION_TYPE":"U","MEAN_MOTION":5.00115754,"ECCENTRICITY":0.00044325,"INCLINATION":0.0539,"RA_OF_ASC_NODE":1.0215,"ARG_OF_PERICENTER":109.0389,"MEAN_ANOMALY":249.9851,"EPHEMERIS_TYPE":0,"NORAD_CAT_ID":58347,"ELEMENT_SET_NO":999,"REV_AT_EPOCH":4964,"BSTAR":0,"MEAN_MOTION_DOT":-1.9e-7,"MEAN_MOTION_DDOT":0},{"OBJECT_NAME":"O3B MPOWER F7","OBJECT_ID":"2024-244A","EPOCH":"2026-07-13T01:28:25.591584","CLASSIFICATION_TYPE":"U","MEAN_MOTION":5.00115292,"ECCENTRICITY":0.00059335,"INCLINATION":0.0661,"RA_OF_ASC_NODE":343.2412,"ARG_OF_PERICENTER":124.3649,"MEAN_ANOMALY":252.4566,"EPHEMERIS_TYPE":0,"NORAD_CAT_ID":62362,"ELEMENT_SET_NO":999,"REV_AT_EPOCH":2782,"BSTAR":0,"MEAN_MOTION_DOT":-1.9e-7,"MEAN_MOTION_DDOT":0},{"OBJECT_NAME":"O3B MPOWER F8","OBJECT_ID":"2024-244B","EPOCH":"2026-07-13T00:40:49.982592","CLASSIFICATION_TYPE":"U","MEAN_MOTION":5.00115001,"ECCENTRICITY":0.0005773,"INCLINATION":0.0143,"RA_OF_ASC_NODE":1.6954,"ARG_OF_PERICENTER":98.6065,"MEAN_ANOMALY":259.7609,"EPHEMERIS_TYPE":0,"NORAD_CAT_ID":62363,"ELEMENT_SET_NO":999,"REV_AT_EPOCH":2216,"BSTAR":0,"MEAN_MOTION_DOT":-1.9e-7,"MEAN_MOTION_DDOT":0},{"OBJECT_NAME":"O3B MPOWER F9","OBJECT_ID":"2025-153A","EPOCH":"2026-07-13T03:52:44.911488","CLASSIFICATION_TYPE":"U","MEAN_MOTION":5.0011564,"ECCENTRICITY":0.00067078,"INCLINATION":0.0611,"RA_OF_ASC_NODE":5.8467,"ARG_OF_PERICENTER":124.3478,"MEAN_ANOMALY":229.862,"EPHEMERIS_TYPE":0,"NORAD_CAT_ID":64866,"ELEMENT_SET_NO":999,"REV_AT_EPOCH":2086,"BSTAR":0,"MEAN_MOTION_DOT":-1.9e-7,"MEAN_MOTION_DDOT":0},{"OBJECT_NAME":"O3B MPOWER F10","OBJECT_ID":"2025-153B","EPOCH":"2026-07-13T03:03:51.588288","CLASSIFICATION_TYPE":"U","MEAN_MOTION":5.00114852,"ECCENTRICITY":0.00023999,"INCLINATION":0.0582,"RA_OF_ASC_NODE":2.3541,"ARG_OF_PERICENTER":245.3415,"MEAN_ANOMALY":112.2766,"EPHEMERIS_TYPE":0,"NORAD_CAT_ID":64867,"ELEMENT_SET_NO":999,"REV_AT_EPOCH":2332,"BSTAR":0,"MEAN_MOTION_DOT":-1.9e-7,"MEAN_MOTION_DDOT":0}]}
